[
    {
        "Altitude(m)": 607897.6071126361,
        "Argument of Periapsis(deg)": 0.0,
        "Eccentricity": 0.0,
        "Inclination(deg)": 60.0,
        "Latitude(deg)": -14.29289210615874,
        "Longitude(deg)": 121.61874623995139,
        "Mean Anomaly(deg)": -16.363600000000037,
        "RAAN(deg)": 229.99999999999997,
        "Satellite Name": "Test1 1033",
        "Satellite Number": 1033,
        "Semi-Major Axis(m)": 6980739.136638005,
        "Time(s)": 0
    },
    {
        "Altitude(m)": 607750.8086875391,
        "Argument of Periapsis(deg)": 0.00010418945913296404,
        "Eccentricity": 0.0,
        "Inclination(deg)": 60.0,
        "Latitude(deg)": -13.758733681128334,
        "Longitude(deg)": 121.90581546017549,
        "Mean Anomaly(deg)": -15.743493854538185,
        "RAAN(deg)": 229.99957995086024,
        "Satellite Name": "Test1 1033",
        "Satellite Number": 1033,
        "Semi-Major Axis(m)": 6980739.136638005,
        "Time(s)": 10
    }
]